NORAD_CAT_ID,OBJECT_NAME,OBJECT_TYPE,EPOCH,MEAN_MOTION,ECCENTRICITY,INCLINATION,RA_OF_ASC_NODE,ARG_OF_PERICENTER,MEAN_ANOMALY,BSTAR,MEAN_MOTION_DOT,MEAN_MOTION_DDOT,TLE_LINE0,TLE_LINE1,TLE_LINE2,SEMIMAJOR_AXIS,PERIOD,APOGEE,PERIGEE,DECAYED
40536,KOMPSAT 3A,PAYLOAD,2022-01-03 10:29:43,15.11972628,8.909999999999997e-05,97.5571,307.7824,40.3126,74.4531,0.00012218,2.031e-05,0.0,0 KOMPSAT 3A,1 40536U 15014A   22003.43730619  .00002031  00000-0  12218-3 0  9992,2 40536  97.5571 307.7824 0000891  40.3126  74.4531 15.11972628374100,6908.321999999999,95.24,530.802,529.571,0.0
40536,KOMPSAT 3A,PAYLOAD,2022-01-03 13:40:11,15.11972377,8.65e-05,97.557,307.9132,37.5513,76.7235,0.00011717,1.945e-05,0.0,0 KOMPSAT 3A,1 40536U 15014A   22003.56957819  .00001945  00000-0  11717-3 0  9995,2 40536  97.5570 307.9132 0000865  37.5513  76.7235 15.11972377374121,6908.321999999999,95.24,530.785,529.59,0.0
40536,KOMPSAT 3A,PAYLOAD,2022-01-03 21:28:54,15.11972777,9.779999999999999e-05,97.557,308.2353,36.0584,48.7939,0.00011054,1.831e-05,0.0,0 KOMPSAT 3A,1 40536U 15014A   22003.89507326  .00001831  00000-0  11054-3 0  9993,2 40536  97.5570 308.2353 0000978  36.0584  48.7939 15.11972777374176,6908.321,95.24,530.862,529.511,0.0
40536,KOMPSAT 3A,PAYLOAD,2022-01-04 10:19:11,15.11973545,9.350000000000001e-05,97.5575,308.7649,36.5333,78.0963,0.00010176,1.681e-05,0.0,0 KOMPSAT 3A,1 40536U 15014A   22004.42999300  .00001681  00000-0  10176-3 0  9997,2 40536  97.5575 308.7649 0000935  36.5333  78.0963 15.11973545374250,6908.319,95.24,530.83,529.538,0.0
40536,KOMPSAT 3A,PAYLOAD,2022-01-04 13:29:50,15.11973265,8.6e-05,97.5575,308.8962,42.2175,72.5857,9.7208e-05,1.603e-05,0.0,0 KOMPSAT 3A,1 40536U 15014A   22004.56238674  .00001603  00000-0  97208-4 0  9998,2 40536  97.5575 308.8962 0000860  42.2175  72.5857 15.11973265374276,6908.32,95.24,530.779,529.591,0.0
40536,KOMPSAT 3A,PAYLOAD,2022-01-04 19:42:55,15.11973316,7.91e-05,97.5575,309.1527,48.0668,36.083,9.057e-05,1.489e-05,0.0,0 KOMPSAT 3A,1 40536U 15014A   22004.82147424  .00001489  00000-0  90570-4 0  9996,2 40536  97.5575 309.1527 0000791  48.0668  36.0830 15.11973316374319,6908.32,95.24,530.731,529.638,0.0
40536,KOMPSAT 3A,PAYLOAD,2022-01-05 03:50:03,15.11973373,8.190000000000001e-05,97.5578,309.4874,45.0176,79.2887,8.2934e-05,1.358e-05,0.0,0 KOMPSAT 3A,1 40536U 15014A   22005.15976008  .00001358  00000-0  82934-4 0  9991,2 40536  97.5578 309.4874 0000819  45.0176  79.2887 15.11973373374361,6908.319,95.24,530.75,529.619,0.0
40536,KOMPSAT 3A,PAYLOAD,2022-01-05 10:15:07,15.11973511,7.57e-05,97.5578,309.7519,45.666000000000004,93.227,7.8637e-05,1.284e-05,0.0,0 KOMPSAT 3A,1 40536U 15014A   22005.42716441  .00001284  00000-0  78637-4 0  9997,2 40536  97.5578 309.7519 0000757  45.6660  93.2270 15.11973511374406,6908.319,95.24,530.707,529.661,0.0
40536,KOMPSAT 3A,PAYLOAD,2022-01-05 19:23:53,15.11973414,7.01e-05,97.5578,310.129,54.0557,357.8605,7.0796e-05,1.15e-05,0.0,0 KOMPSAT 3A,1 40536U 15014A   22005.80825927  .00001150  00000-0  70796-4 0  9999,2 40536  97.5578 310.1290 0000701  54.0557 357.8605 15.11973414374465,6908.319,95.24,530.669,529.7,0.0
40536,KOMPSAT 3A,PAYLOAD,2022-01-05 21:08:10,15.11973385,7.47e-05,97.5577,310.2006,50.083999999999996,35.7693,6.8973e-05,1.119e-05,0.0,0 KOMPSAT 3A,1 40536U 15014A   22005.88067890  .00001119  00000-0  68973-4 0  9993,2 40536  97.5577 310.2006 0000747  50.0840  35.7693 15.11973385374478,6908.319,95.24,530.7,529.668,0.0
40536,KOMPSAT 3A,PAYLOAD,2022-01-06 03:39:45,15.11973628,7.47e-05,97.5578,310.4697,49.6545,75.4341,6.6029e-05,1.068e-05,0.0,0 KOMPSAT 3A,1 40536U 15014A   22006.15261429  .00001068  00000-0  66029-4 0  9991,2 40536  97.5578 310.4697 0000747  49.6545  75.4341 15.11973628374519,6908.319,95.24,530.7,529.668,0.0
40536,KOMPSAT 3A,PAYLOAD,2022-01-06 13:01:39,15.11973803,7.06e-05,97.5578,310.8557,49.858999999999995,37.7892,6.1095e-05,9.84e-06,0.0,0 KOMPSAT 3A,1 40536U 15014A   22006.54281535  .00000984  00000-0  61095-4 0  9998,2 40536  97.5578 310.8557 0000706  49.8590  37.7892 15.11973803374578,6908.318,95.24,530.6709999999998,529.695,0.0
40536,KOMPSAT 3A,PAYLOAD,2022-01-06 20:52:13,15.11973989,7.7e-05,97.5578,311.1788,44.1118,21.119,5.6708999999999995e-05,9.08e-06,0.0,0 KOMPSAT 3A,1 40536U 15014A   22006.86959742  .00000908  00000-0  56709-4 0  9997,2 40536  97.5578 311.1788 0000770  44.1118  21.1190 15.11973989374622,6908.318,95.24,530.715,529.651,0.0
40536,KOMPSAT 3A,PAYLOAD,2022-01-07 03:29:57,15.11974453,7.659999999999999e-05,97.5579,311.4521,43.8196,83.8574,5.609e-05,8.98e-06,0.0,0 KOMPSAT 3A,1 40536U 15014A   22007.14579932  .00000898  00000-0  56090-4 0  9999,2 40536  97.5579 311.4521 0000766  43.8196  83.8574 15.11974453374660,6908.316,95.24,530.71,529.6519999999998,0.0
40536,KOMPSAT 3A,PAYLOAD,2022-01-07 09:56:35,15.11974797,7.35e-05,97.55799999999999,311.7177,46.0383,102.18799999999999,5.4688e-05,8.74e-06,0.0,0 KOMPSAT 3A,1 40536U 15014A   22007.41429905  .00000874  00000-0  54688-4 0  9998,2 40536  97.5580 311.7177 0000735  46.0383 102.1880 15.11974797374702,6908.315,95.24,530.688,529.672,0.0
40536,KOMPSAT 3A,PAYLOAD,2022-01-07 20:41:37,15.11975693,6.94e-05,97.5581,312.1609,47.0298,17.8198,5.4775e-05,8.75e-06,0.0,0 KOMPSAT 3A,1 40536U 15014A   22007.86223468  .00000875  00000-0  54775-4 0  9991,2 40536  97.5581 312.1609 0000694  47.0298  17.8198 15.11975693374775,6908.312,95.24,530.6569999999998,529.698,0.0
40536,KOMPSAT 3A,PAYLOAD,2022-01-07 22:22:29,15.1197585,6.96e-05,97.5581,312.2302,45.8985,40.0172,5.4823999999999996e-05,8.76e-06,0.0,0 KOMPSAT 3A,1 40536U 15014A   22007.93228775  .00000876  00000-0  54824-4 0  9991,2 40536  97.5581 312.2302 0000696  45.8985  40.0172 15.11975850374783,6908.312,95.24,530.658,529.696,0.0
40536,KOMPSAT 3A,PAYLOAD,2022-01-08 06:34:02,15.11976631,6.74e-05,97.5581,312.5679,49.6388,93.1166,5.5438999999999996e-05,8.87e-06,0.0,0 KOMPSAT 3A,1 40536U 15014A   22008.27363872  .00000887  00000-0  55439-4 0  9992,2 40536  97.5581 312.5679 0000674  49.6388  93.1166 15.11976631374834,6908.31,95.24,530.64,529.7090000000002,0.0
40536,KOMPSAT 3A,PAYLOAD,2022-01-08 11:11:18,15.11976907,6.54e-05,97.5582,312.7586,50.4268,59.7486,5.4664e-05,8.73e-06,0.0,0 KOMPSAT 3A,1 40536U 15014A   22008.46619063  .00000873  00000-0  54664-4 0  9993,2 40536  97.5582 312.7586 0000654  50.4268  59.7486 15.11976907374861,6908.309,95.24,530.626,529.722,0.0
40536,KOMPSAT 3A,PAYLOAD,2022-01-08 14:38:30,15.11977316,6.37e-05,97.5583,312.901,54.4591,118.3886,5.591600000000001e-05,8.95e-06,0.0,0 KOMPSAT 3A,1 40536U 15014A   22008.61007256  .00000895  00000-0  55916-4 0  9990,2 40536  97.5583 312.9010 0000637  54.4591 118.3886 15.11977316374883,6908.307,95.24,530.613,529.732,0.0
40536,KOMPSAT 3A,PAYLOAD,2022-01-08 18:54:05,15.11977871,6.15e-05,97.5584,313.0766,53.388999999999996,4.9541,5.7266000000000004e-05,9.18e-06,0.0,0 KOMPSAT 3A,1 40536U 15014A   22008.78756353  .00000918  00000-0  57266-4 0  9993,2 40536  97.5584 313.0766 0000615  53.3890   4.9541 15.11977871374918,6908.306,95.23899999999999,530.596,529.746,0.0
40536,KOMPSAT 3A,PAYLOAD,2022-01-08 22:12:16,15.11978231,6.13e-05,97.5584,313.2127,52.7401,34.2581,5.7687e-05,9.25e-06,0.0,0 KOMPSAT 3A,1 40536U 15014A   22008.92519190  .00000925  00000-0  57687-4 0  9990,2 40536  97.5584 313.2127 0000613  52.7401  34.2581 15.11978231374933,6908.305,95.23899999999999,530.5930000000002,529.746,0.0
40536,KOMPSAT 3A,PAYLOAD,2022-01-09 04:39:34,15.11979019,5.770000000000001e-05,97.5584,313.4788,54.9563,55.0919,5.9173000000000004e-05,9.51e-06,0.0,0 KOMPSAT 3A,1 40536U 15014A   22009.19415019  .00000951  00000-0  59173-4 0  9996,2 40536  97.5584 313.4788 0000577  54.9563  55.0919 15.11979019374975,6908.302,95.23899999999999,530.566,529.769,0.0
40536,KOMPSAT 3A,PAYLOAD,2022-01-09 09:26:30,15.11979584,5.8299999999999994e-05,97.5585,313.6761,56.6619,57.3128,6.006100000000001e-05,9.66e-06,0.0,0 KOMPSAT 3A,1 40536U 15014A   22009.39341264  .00000966  00000-0  60061-4 0  9992,2 40536  97.5585 313.6761 0000583  56.6619  57.3128 15.11979584375006,6908.3009999999995,95.23899999999999,530.568,529.763,0.0
40536,KOMPSAT 3A,PAYLOAD,2022-01-09 18:50:26,15.11980958,5.710000000000001e-05,97.5585,314.0636,61.7635,22.494,6.4473e-05,1.042e-05,0.0,0 KOMPSAT 3A,1 40536U 15014A   22009.78503059  .00001042  00000-0  64473-4 0  9994,2 40536  97.5585 314.0636 0000571  61.7635  22.4940 15.11980958375062,6908.2959999999985,95.23899999999999,530.556,529.7669999999998,0.0
40536,KOMPSAT 3A,PAYLOAD,2022-01-10 02:39:42,15.11982051,5.3e-05,97.5586,314.38599999999997,60.5996,356.3165,6.678600000000001e-05,1.081e-05,0.0,0 KOMPSAT 3A,1 40536U 15014A   22010.11090486  .00001081  00000-0  66786-4 0  9990,2 40536  97.5586 314.3860 0000530  60.5996 356.3165 15.11982051375117,6908.293000000002,95.23899999999999,530.524,529.7919999999998,0.0
40536,KOMPSAT 3A,PAYLOAD,2022-01-10 10:52:23,15.11983157,5.460000000000001e-05,97.5585,314.7246,60.3402,57.7257,6.8815e-05,1.116e-05,0.0,0 KOMPSAT 3A,1 40536U 15014A   22010.45304667  .00001116  00000-0  68815-4 0  9990,2 40536  97.5585 314.7246 0000546  60.3402  57.7257 15.11983157375162,6908.29,95.23899999999999,530.5319999999998,529.7769999999998,0.0
40536,KOMPSAT 3A,PAYLOAD,2022-01-10 14:17:27,15.11983712,5.68e-05,97.5586,314.8657,63.7693,108.9495,7.0783e-05,1.15e-05,0.0,0 KOMPSAT 3A,1 40536U 15014A   22010.59545377  .00001150  00000-0  70783-4 0  9995,2 40536  97.5586 314.8657 0000568  63.7693 108.9495 15.11983712375185,6908.288000000001,95.23899999999999,530.545,529.761,0.0
40536,KOMPSAT 3A,PAYLOAD,2022-01-10 18:32:43,15.11984452,5.65e-05,97.5586,315.041,63.3534,353.6819,7.3153e-05,1.191e-05,0.0,0 KOMPSAT 3A,1 40536U 15014A   22010.77272723  .00001191  00000-0  73153-4 0  9996,2 40536  97.5586 315.0410 0000565  63.3534 353.6819 15.11984452375217,6908.286,95.23899999999999,530.5409999999998,529.76,0.0
